{"type":"FeatureCollection","features":[
{"type":"Feature","geometry":{"type":"Point","coordinates":[-0.2039600,27.9766155]},"properties":{"code":1,"name":"Adrar","name_ar":"أدرار"}},
{"type":"Feature","geometry":{"type":"Point","coordinates":[1.3539002,36.1691245]},"properties":{"code":2,"name":"Chlef","name_ar":"الشلف"}},
{"type":"Feature","geometry":{"type":"Point","coordinates":[2.8829115,33.7873735]},"properties":{"code":3,"name":"Laghouat","name_ar":"الأغواط"}},
{"type":"Feature","geometry":{"type":"Point","coordinates":[7.1180248,35.8726014]},"properties":{"code":4,"name":"Oum El Bouaghi","name_ar":"أم البواقي"}},
{"type":"Feature","geometry":{"type":"Point","coordinates":[6.1083422,35.5784266]},"properties":{"code":5,"name":"Batna","name_ar":"باتنة"}},
{"type":"Feature","geometry":{"type":"Point","coordinates":[5.0085855,36.7695969]},"properties":{"code":6,"name":"Bejaia","name_ar":"بجاية"}},
{"type":"Feature","geometry":{"type":"Point","coordinates":[5.7246709,34.8515041]},"properties":{"code":7,"name":"Biskra","name_ar":"بسكرة"}},
{"type":"Feature","geometry":{"type":"Point","coordinates":[-2.4145248,31.5965368]},"properties":{"code":8,"name":"Bechar","name_ar":"بشار"}},
{"type":"Feature","geometry":{"type":"Point","coordinates":[2.8009379,36.4803023]},"properties":{"code":9,"name":"Blida","name_ar":"البليدة"}},
{"type":"Feature","geometry":{"type":"Point","coordinates":[3.9250490,36.2084234]},"properties":{"code":10,"name":"Bouira","name_ar":"البويرة"}},
{"type":"Feature","geometry":{"type":"Point","coordinates":[5.6754684,22.2746227]},"properties":{"code":11,"name":"Tamanrasset","name_ar":"تمنراست"}},
{"type":"Feature","geometry":{"type":"Point","coordinates":[8.1105450,35.4117259]},"properties":{"code":12,"name":"Tebessa","name_ar":"تبسة"}},
{"type":"Feature","geometry":{"type":"Point","coordinates":[-1.3150979,34.8959541]},"properties":{"code":13,"name":"Tlemcen","name_ar":"تلمسان"}},
{"type":"Feature","geometry":{"type":"Point","coordinates":[1.3916159,35.3599899]},"properties":{"code":14,"name":"Tiaret","name_ar":"تيارت"}},
{"type":"Feature","geometry":{"type":"Point","coordinates":[4.0759570,36.7002068]},"properties":{"code":15,"name":"Tizi Ouzou","name_ar":"تيزي وزو"}},
{"type":"Feature","geometry":{"type":"Point","coordinates":[3.0578410,36.7538259]},"properties":{"code":16,"name":"Alger","name_ar":"الجزائر"}},
{"type":"Feature","geometry":{"type":"Point","coordinates":[3.2993118,34.6672467]},"properties":{"code":17,"name":"Djelfa","name_ar":"الجلفة"}},
{"type":"Feature","geometry":{"type":"Point","coordinates":[5.7504845,36.7962714]},"properties":{"code":18,"name":"Jijel","name_ar":"جيجل"}},
{"type":"Feature","geometry":{"type":"Point","coordinates":[5.4202134,36.1905173]},"properties":{"code":19,"name":"Setif","name_ar":"سطيف"}},
{"type":"Feature","geometry":{"type":"Point","coordinates":[0.1483583,34.8419450]},"properties":{"code":20,"name":"Saida","name_ar":"سعيدة"}},
{"type":"Feature","geometry":{"type":"Point","coordinates":[6.9357204,36.8777912]},"properties":{"code":21,"name":"Skikda","name_ar":"سكيكدة"}},
{"type":"Feature","geometry":{"type":"Point","coordinates":[-0.6301368,35.2063340]},"properties":{"code":22,"name":"Sidi Bel Abbes","name_ar":"سيدي بلعباس"}},
{"type":"Feature","geometry":{"type":"Point","coordinates":[7.7452755,36.9184345]},"properties":{"code":23,"name":"Annaba","name_ar":"عنابة"}},
{"type":"Feature","geometry":{"type":"Point","coordinates":[7.4334312,36.4569088]},"properties":{"code":24,"name":"Guelma","name_ar":"قالمة"}},
{"type":"Feature","geometry":{"type":"Point","coordinates":[6.7370571,36.3194750]},"properties":{"code":25,"name":"Constantine","name_ar":"قسنطينة"}},
{"type":"Feature","geometry":{"type":"Point","coordinates":[2.7728462,36.2838408]},"properties":{"code":26,"name":"Medea","name_ar":"المدية"}},
{"type":"Feature","geometry":{"type":"Point","coordinates":[0.1149273,35.9751841]},"properties":{"code":27,"name":"Mostaganem","name_ar":"مستغانم"}},
{"type":"Feature","geometry":{"type":"Point","coordinates":[4.5187283,35.7211476]},"properties":{"code":28,"name":"M'Sila","name_ar":"المسيلة"}},
{"type":"Feature","geometry":{"type":"Point","coordinates":[0.1542592,35.3829980]},"properties":{"code":29,"name":"Mascara","name_ar":"معسكر"}},
{"type":"Feature","geometry":{"type":"Point","coordinates":[5.3421000,31.8974000]},"properties":{"code":30,"name":"Ouargla","name_ar":"ورقلة"}},
{"type":"Feature","geometry":{"type":"Point","coordinates":[-0.6405861,35.7066928]},"properties":{"code":31,"name":"Oran","name_ar":"وهران"}},
{"type":"Feature","geometry":{"type":"Point","coordinates":[1.0190000,33.6146000]},"properties":{"code":32,"name":"El Bayadh","name_ar":"البيض"}},
{"type":"Feature","geometry":{"type":"Point","coordinates":[8.4805870,26.5065999]},"properties":{"code":33,"name":"Illizi","name_ar":"إليزي"}},
{"type":"Feature","geometry":{"type":"Point","coordinates":[4.7691823,36.0686488]},"properties":{"code":34,"name":"Bordj Bou Arreridj","name_ar":"برج بوعريريج"}},
{"type":"Feature","geometry":{"type":"Point","coordinates":[3.4917212,36.7564181]},"properties":{"code":35,"name":"Boumerdes","name_ar":"بومرداس"}},
{"type":"Feature","geometry":{"type":"Point","coordinates":[8.2984543,36.7534258]},"properties":{"code":36,"name":"El Tarf","name_ar":"الطارف"}},
{"type":"Feature","geometry":{"type":"Point","coordinates":[-8.1491000,27.5972000]},"properties":{"code":37,"name":"Tindouf","name_ar":"تندوف"}},
{"type":"Feature","geometry":{"type":"Point","coordinates":[1.8021870,35.6021906]},"properties":{"code":38,"name":"Tissemsilt","name_ar":"تسمسيلت"}},
{"type":"Feature","geometry":{"type":"Point","coordinates":[6.8573436,33.3714492]},"properties":{"code":39,"name":"El Oued","name_ar":"الوادي"}},
{"type":"Feature","geometry":{"type":"Point","coordinates":[7.1414137,35.4263293]},"properties":{"code":40,"name":"Khenchela","name_ar":"خنشلة"}},
{"type":"Feature","geometry":{"type":"Point","coordinates":[7.9592299,36.2778490]},"properties":{"code":41,"name":"Souk Ahras","name_ar":"سوق أهراس"}},
{"type":"Feature","geometry":{"type":"Point","coordinates":[2.4085379,36.5980966]},"properties":{"code":42,"name":"Tipaza","name_ar":"تيبازة"}},
{"type":"Feature","geometry":{"type":"Point","coordinates":[6.2487316,36.4514882]},"properties":{"code":43,"name":"Mila","name_ar":"ميلة"}},
{"type":"Feature","geometry":{"type":"Point","coordinates":[2.1772514,36.1283915]},"properties":{"code":44,"name":"Ain Defla","name_ar":"عين الدفلى"}},
{"type":"Feature","geometry":{"type":"Point","coordinates":[-0.3131000,33.1950000]},"properties":{"code":45,"name":"Naama","name_ar":"النعامة"}},
{"type":"Feature","geometry":{"type":"Point","coordinates":[-1.0580975,35.4040440]},"properties":{"code":46,"name":"Ain Temouchent","name_ar":"عين تموشنت"}},
{"type":"Feature","geometry":{"type":"Point","coordinates":[3.7455655,32.5891743]},"properties":{"code":47,"name":"Ghardaia","name_ar":"غرداية"}},
{"type":"Feature","geometry":{"type":"Point","coordinates":[0.5493000,35.6696000]},"properties":{"code":48,"name":"Relizane","name_ar":"غليزان"}},
{"type":"Feature","geometry":{"type":"Point","coordinates":[0.2305560,29.2583330]},"properties":{"code":49,"name":"Timimoun","name_ar":"تيميمون"}},
{"type":"Feature","geometry":{"type":"Point","coordinates":[0.9555560,21.3277780]},"properties":{"code":50,"name":"Bordj Badji Mokhtar","name_ar":"برج باجي مختار"}},
{"type":"Feature","geometry":{"type":"Point","coordinates":[5.0666670,34.4333330]},"properties":{"code":51,"name":"Ouled Djellal","name_ar":"أولاد جلال"}},
{"type":"Feature","geometry":{"type":"Point","coordinates":[-2.1666670,30.1333330]},"properties":{"code":52,"name":"Beni Abbes","name_ar":"بني عباس"}},
{"type":"Feature","geometry":{"type":"Point","coordinates":[2.4833330,27.1972220]},"properties":{"code":53,"name":"In Salah","name_ar":"عين صالح"}},
{"type":"Feature","geometry":{"type":"Point","coordinates":[5.7694440,19.5722220]},"properties":{"code":54,"name":"In Guezzam","name_ar":"عين قزام"}},
{"type":"Feature","geometry":{"type":"Point","coordinates":[6.0638890,33.1083330]},"properties":{"code":55,"name":"Touggourt","name_ar":"تقرت"}},
{"type":"Feature","geometry":{"type":"Point","coordinates":[9.4847220,24.5541670]},"properties":{"code":56,"name":"Djanet","name_ar":"جانت"}},
{"type":"Feature","geometry":{"type":"Point","coordinates":[5.9222220,33.9472220]},"properties":{"code":57,"name":"El M'Ghair","name_ar":"المغير"}},
{"type":"Feature","geometry":{"type":"Point","coordinates":[2.8791670,30.5791670]},"properties":{"code":58,"name":"El Meniaa","name_ar":"المنيعة"}},
{"type":"Feature","geometry":{"type":"Point","coordinates":[2.1000000,34.1167000]},"properties":{"code":59,"name":"Aflou","name_ar":"أفلو"}},
{"type":"Feature","geometry":{"type":"Point","coordinates":[5.3667000,35.3833000]},"properties":{"code":60,"name":"Barika","name_ar":"بريكة"}},
{"type":"Feature","geometry":{"type":"Point","coordinates":[5.7000000,35.2167000]},"properties":{"code":61,"name":"El Kantara","name_ar":"القنطرة"}},
{"type":"Feature","geometry":{"type":"Point","coordinates":[8.0500000,34.7500000]},"properties":{"code":62,"name":"Bir El Ater","name_ar":"بئر العاتر"}},
{"type":"Feature","geometry":{"type":"Point","coordinates":[-1.3500000,34.2500000]},"properties":{"code":63,"name":"El Aricha","name_ar":"العريشة"}},
{"type":"Feature","geometry":{"type":"Point","coordinates":[2.3167000,35.1667000]},"properties":{"code":64,"name":"Ksar Chellala","name_ar":"قصر الشلالة"}},
{"type":"Feature","geometry":{"type":"Point","coordinates":[2.9000000,35.4500000]},"properties":{"code":65,"name":"Ain Oussara","name_ar":"عين وسارة"}},
{"type":"Feature","geometry":{"type":"Point","coordinates":[3.5000000,34.1667000]},"properties":{"code":66,"name":"Messaad","name_ar":"مسعد"}},
{"type":"Feature","geometry":{"type":"Point","coordinates":[2.7500000,35.8833000]},"properties":{"code":67,"name":"Ksar El Boukhari","name_ar":"قصر البخاري"}},
{"type":"Feature","geometry":{"type":"Point","coordinates":[4.1833000,35.2167000]},"properties":{"code":68,"name":"Bou Saada","name_ar":"بوسعادة"}},
{"type":"Feature","geometry":{"type":"Point","coordinates":[0.5333000,32.9000000]},"properties":{"code":69,"name":"El Abiodh Sidi Cheikh","name_ar":"الأبيض سيدي الشيخ"}}
]}
